{"type": "FeatureCollection", "features": [ {"type": "Feature", "properties": {"norad_id": 39544, "name": "FENGYUN 1C DEB", "group": "fengyun-1c-debris", "lat": -73.14343527946677, "lon": 10.725094098942938, "alt_km": 905.5648494844927, "timestamp": "2025-12-07T22:37:43.370381+00:00", "meta": {"OBJECT_NAME": "FENGYUN 1C DEB", "OBJECT_ID": "1999-025EWM", "EPOCH": "2025-11-19T09:11:56.449536", "MEAN_MOTION": 14.05475202, "ECCENTRICITY": 0.00550402, "INCLINATION": 98.7431, "RA_OF_ASC_NODE": 203.3482, "ARG_OF_PERICENTER": 73.9921, "MEAN_ANOMALY": 286.7301, "EPHEMERIS_TYPE": 0, "CLASSIFICATION_TYPE": "U", "NORAD_CAT_ID": 39544, "ELEMENT_SET_NO": 999, "REV_AT_EPOCH": 56527, "BSTAR": 0.00067356683, "MEAN_MOTION_DOT": 1.067e-05, "MEAN_MOTION_DDOT": 0}, "tle": {"line1": "1 39544U 99025EWM 25323.38329224  .00001067  00000+0  67357-3 0  9992", "line2": "2 39544  98.7431 203.3482 0055040  73.9921 286.7301 14.05475202565278"}}, "geometry": {"type": "Point", "coordinates": [10.725094098942938, -73.14343527946677]}}, {"type": "Feature", "properties": {"norad_id": 40688, "name": "FENGYUN 1C DEB", "group": "fengyun-1c-debris", "lat": -44.16657557891012, "lon": -57.111766739988795, "alt_km": 1061.5625560861263, "timestamp": "2025-12-07T22:37:43.370391+00:00", "meta": {"OBJECT_NAME": "FENGYUN 1C DEB", "OBJECT_ID": "1999-025EWU", "EPOCH": "2025-11-28T15:26:17.467872", "MEAN_MOTION": 13.83811366, "ECCENTRICITY": 0.01426841, "INCLINATION": 98.9673, "RA_OF_ASC_NODE": 122.8373, "ARG_OF_PERICENTER": 69.4473, "MEAN_ANOMALY": 292.1926, "EPHEMERIS_TYPE": 0, "CLASSIFICATION_TYPE": "U", "NORAD_CAT_ID": 40688, "ELEMENT_SET_NO": 999, "REV_AT_EPOCH": 29722, "BSTAR": 0.00038169517, "MEAN_MOTION_DOT": 4.17e-06, "MEAN_MOTION_DDOT": 0}, "tle": {"line1": "1 40688U 99025EWU 25332.64325773  .00000417  00000+0  38170-3 0  9996", "line2": "2 40688  98.9673 122.8373 0142684  69.4473 292.1926 13.83811366297227"}}, "geometry": {"type": "Point", "coordinates": [-57.111766739988795, -44.16657557891012]}}, {"type": "Feature", "properties": {"norad_id": 40689, "name": "FENGYUN 1C DEB", "group": "fengyun-1c-debris", "lat": -71.6755733370254, "lon": -70.78234073081346, "alt_km": 1252.8476211930847, "timestamp": "2025-12-07T22:37:43.370401+00:00", "meta": {"OBJECT_NAME": "FENGYUN 1C DEB", "OBJECT_ID": "1999-025EWV", "EPOCH": "2025-12-03T01:06:50.802912", "MEAN_MOTION": 13.64656571, "ECCENTRICITY": 0.03097255, "INCLINATION": 99.1251, "RA_OF_ASC_NODE": 255.5784, "ARG_OF_PERICENTER": 126.5569, "MEAN_ANOMALY": 236.4512, "EPHEMERIS_TYPE": 0, "CLASSIFICATION_TYPE": "U", "NORAD_CAT_ID": 40689, "ELEMENT_SET_NO": 999, "REV_AT_EPOCH": 54751, "BSTAR": 0.0014793346, "MEAN_MOTION_DOT": 1.611e-05, "MEAN_MOTION_DDOT": 0}, "tle": {"line1": "1 40689U 99025EWV 25337.04642133  .00001611  00000+0  14793-2 0  9999", "line2": "2 40689  99.1251 255.5784 0309725 126.5569 236.4512 13.64656571547511"}}, "geometry": {"type": "Point", "coordinates": [-70.78234073081346, -71.6755733370254]}}, {"type": "Feature", "properties": {"norad_id": 40691, "name": "FENGYUN 1C DEB", "group": "fengyun-1c-debris", "lat": -39.60428389976868, "lon": 21.91597217640339, "alt_km": 841.6150175735702, "timestamp": "2025-12-07T22:37:43.370412+00:00", "meta": {"OBJECT_NAME": "FENGYUN 1C DEB", "OBJECT_ID": "1999-025EWX", "EPOCH": "2025-12-03T08:15:02.306016", "MEAN_MOTION": 13.89944729, "ECCENTRICITY": 0.0128434, "INCLINATION": 99.0573, "RA_OF_ASC_NODE": 9.8547, "ARG_OF_PERICENTER": 336.6089, "MEAN_ANOMALY": 22.9259, "EPHEMERIS_TYPE": 0, "CLASSIFICATION_TYPE": "U", "NORAD_CAT_ID": 40691, "ELEMENT_SET_NO": 999, "REV_AT_EPOCH": 55305, "BSTAR": 0.00023937, "MEAN_MOTION_DOT": 2.71e-06, "MEAN_MOTION_DDOT": 0}, "tle": {"line1": "1 40691U 99025EWX 25337.34377669  .00000271  00000+0  23937-3 0  9996", "line2": "2 40691  99.0573   9.8547 0128434 336.6089  22.9259 13.89944729553058"}}, "geometry": {"type": "Point", "coordinates": [21.91597217640339, -39.60428389976868]}}, {"type": "Feature", "properties": {"norad_id": 40695, "name": "FENGYUN 1C DEB", "group": "fengyun-1c-debris", "lat": 55.45186518324008, "lon": 85.60901699315663, "alt_km": 642.1462487479757, "timestamp": "2025-12-07T22:37:43.370422+00:00", "meta": {"OBJECT_NAME": "FENGYUN 1C DEB", "OBJECT_ID": "1999-025EXB", "EPOCH": "2025-11-30T01:42:31.870080", "MEAN_MOTION": 14.50916136, "ECCENTRICITY": 0.02815501, "INCLINATION": 99.4248, "RA_OF_ASC_NODE": 90.7471, "ARG_OF_PERICENTER": 10.5794, "MEAN_ANOMALY": 350.1155, "EPHEMERIS_TYPE": 0, "CLASSIFICATION_TYPE": "U", "NORAD_CAT_ID": 40695, "ELEMENT_SET_NO": 999, "REV_AT_EPOCH": 31682, "BSTAR": 0.00020572034, "MEAN_MOTION_DOT": 1.283e-05, "MEAN_MOTION_DDOT": 0}, "tle": {"line1": "1 40695U 99025EXB 25334.07120220  .00001283  00000+0  20572-3 0  9992", "line2": "2 40695  99.4248  90.7471 0281550  10.5794 350.1155 14.50916136316823"}}, "geometry": {"type": "Point", "coordinates": [85.60901699315663, 55.45186518324008]}}, {"type": "Feature", "properties": {"norad_id": 40696, "name": "FENGYUN 1C DEB", "group": "fengyun-1c-debris", "lat": 27.903493190295748, "lon": 153.614527800249, "alt_km": 949.3233919790464, "timestamp": "2025-12-07T22:37:43.370433+00:00", "meta": {"OBJECT_NAME": "FENGYUN 1C DEB", "OBJECT_ID": "1999-025EXC", "EPOCH": "2025-11-26T05:40:29.681760", "MEAN_MOTION": 13.96727195, "ECCENTRICITY": 0.00806572, "INCLINATION": 98.9548, "RA_OF_ASC_NODE": 317.4298, "ARG_OF_PERICENTER": 42.7994, "MEAN_ANOMALY": 317.9411, "EPHEMERIS_TYPE": 0, "CLASSIFICATION_TYPE": "U", "NORAD_CAT_ID": 40696, "ELEMENT_SET_NO": 999, "REV_AT_EPOCH": 55449, "BSTAR": 0.0001965233, "MEAN_MOTION_DOT": 2.38e-06, "MEAN_MOTION_DDOT": 0}, "tle": {"line1": "1 40696U 99025EXC 25330.23645465  .00000238  00000+0  19652-3 0  9996", "line2": "2 40696  98.9548 317.4298 0080657  42.7994 317.9411 13.96727195554498"}}, "geometry": {"type": "Point", "coordinates": [153.614527800249, 27.903493190295748]}}, {"type": "Feature", "properties": {"norad_id": 41003, "name": "FENGYUN 1C DEB", "group": "fengyun-1c-debris", "lat": -0.41819486045326093, "lon": 80.49268350117504, "alt_km": 687.111058863833, "timestamp": "2025-12-07T22:37:43.370443+00:00", "meta": {"OBJECT_NAME": "FENGYUN 1C DEB", "OBJECT_ID": "1999-025EXH", "EPOCH": "2025-12-04T00:49:42.134016", "MEAN_MOTION": 14.71928212, "ECCENTRICITY": 0.0073367, "INCLINATION": 98.9659, "RA_OF_ASC_NODE": 256.2527, "ARG_OF_PERICENTER": 319.547, "MEAN_ANOMALY": 40.0293, "EPHEMERIS_TYPE": 0, "CLASSIFICATION_TYPE": "U", "NORAD_CAT_ID": 41003, "ELEMENT_SET_NO": 999, "REV_AT_EPOCH": 52292, "BSTAR": 0.0095392716, "MEAN_MOTION_DOT": 0.00062834, "MEAN_MOTION_DDOT": 0}, "tle": {"line1": "1 41003U 99025EXH 25338.03451544  .00062834  00000+0  95393-2 0  9993", "line2": "2 41003  98.9659 256.2527 0073367 319.5470  40.0293 14.71928212522925"}}, "geometry": {"type": "Point", "coordinates": [80.49268350117504, -0.41819486045326093]}}, {"type": "Feature", "properties": {"norad_id": 41006, "name": "FENGYUN 1C DEB", "group": "fengyun-1c-debris", "lat": 55.467850608454164, "lon": 49.81432720973512, "alt_km": 967.3244428387534, "timestamp": "2025-12-07T22:37:43.370453+00:00", "meta": {"OBJECT_NAME": "FENGYUN 1C DEB", "OBJECT_ID": "1999-025EXL", "EPOCH": "2025-12-06T21:47:16.016928", "MEAN_MOTION": 13.8530079, "ECCENTRICITY": 0.01894496, "INCLINATION": 102.3658, "RA_OF_ASC_NODE": 209.8627, "ARG_OF_PERICENTER": 22.3217, "MEAN_ANOMALY": 338.6038, "EPHEMERIS_TYPE": 0, "CLASSIFICATION_TYPE": "U", "NORAD_CAT_ID": 41006, "ELEMENT_SET_NO": 999, "REV_AT_EPOCH": 57408, "BSTAR": 0.0041491348, "MEAN_MOTION_DOT": 5.361e-05, "MEAN_MOTION_DDOT": 0}, "tle": {"line1": "1 41006U 99025EXL 25340.90782427  .00005361  00000+0  41491-2 0  9994", "line2": "2 41006 102.3658 209.8627 0189449  22.3217 338.6038 13.85300790574085"}}, "geometry": {"type": "Point", "coordinates": [49.81432720973512, 55.467850608454164]}}, {"type": "Feature", "properties": {"norad_id": 41007, "name": "FENGYUN 1C DEB", "group": "fengyun-1c-debris", "lat": -48.94076641837876, "lon": 20.064057782707916, "alt_km": 984.401341977501, "timestamp": "2025-12-07T22:37:43.370464+00:00", "meta": {"OBJECT_NAME": "FENGYUN 1C DEB", "OBJECT_ID": "1999-025EXM", "EPOCH": "2025-11-29T06:55:22.773792", "MEAN_MOTION": 13.85678237, "ECCENTRICITY": 0.01723955, "INCLINATION": 99.9731, "RA_OF_ASC_NODE": 359.205, "ARG_OF_PERICENTER": 79.2855, "MEAN_ANOMALY": 282.7657, "EPHEMERIS_TYPE": 0, "CLASSIFICATION_TYPE": "U", "NORAD_CAT_ID": 41007, "ELEMENT_SET_NO": 999, "REV_AT_EPOCH": 57212, "BSTAR": 0.0017167305, "MEAN_MOTION_DOT": 2.158e-05, "MEAN_MOTION_DDOT": 0}, "tle": {"line1": "1 41007U 99025EXM 25333.28845803  .00002158  00000+0  17167-2 0  9990", "line2": "2 41007  99.9731 359.2050 0172395  79.2855 282.7657 13.85678237572123"}}, "geometry": {"type": "Point", "coordinates": [20.064057782707916, -48.94076641837876]}}, {"type": "Feature", "properties": {"norad_id": 41011, "name": "FENGYUN 1C DEB", "group": "fengyun-1c-debris", "lat": -10.973864920557876, "lon": -155.21104106120444, "alt_km": 974.63153915369, "timestamp": "2025-12-07T22:37:43.370474+00:00", "meta": {"OBJECT_NAME": "FENGYUN 1C DEB", "OBJECT_ID": "1999-025EXR", "EPOCH": "2025-12-07T01:46:44.140800", "MEAN_MOTION": 14.42847352, "ECCENTRICITY": 0.03105621, "INCLINATION": 99.1691, "RA_OF_ASC_NODE": 25.6482, "ARG_OF_PERICENTER": 14.9057, "MEAN_ANOMALY": 346.1034, "EPHEMERIS_TYPE": 0, "CLASSIFICATION_TYPE": "U", "NORAD_CAT_ID": 41011, "ELEMENT_SET_NO": 999, "REV_AT_EPOCH": 57075, "BSTAR": 0.00087387709, "MEAN_MOTION_DOT": 5.181e-05, "MEAN_MOTION_DDOT": 0}, "tle": {"line1": "1 41011U 99025EXR 25341.07412200  .00005181  00000+0  87388-3 0  9994", "line2": "2 41011  99.1691  25.6482 0310562  14.9057 346.1034 14.42847352570759"}}, "geometry": {"type": "Point", "coordinates": [-155.21104106120444, -10.973864920557876]}}]}